$GPGGA,053000.00,,,,,0,00,99.9,,M,,M,,*59
$GPRMC,053000.00,V,,,,,,,080926,,,N*7E
$GPGGA,053001.00,,,,,0,00,99.9,,M,,M,,*58
$GPRMC,053001.00,V,,,,,,,080926,,,N*7F
$GPGGA,053002.00,,,,,0,00,99.9,,M,,M,,*5B
$GPRMC,053002.00,V,,,,,,,080926,,,N*7C
$GPGGA,053003.00,,,,,0,00,99.9,,M,,M,,*5A
$GPRMC,053003.00,V,,,,,,,080926,,,N*7D
$GPGGA,053004.00,,,,,0,00,99.9,,M,,M,,*5D
$GPRMC,053004.00,V,,,,,,,080926,,,N*7A
$GPGGA,053005.00,,,,,0,00,99.9,,M,,M,,*5C
$GPRMC,053005.00,V,,,,,,,080926,,,N*7B
$GPGGA,053006.00,,,,,0,00,99.9,,M,,M,,*5F
$GPRMC,053006.00,V,,,,,,,080926,,,N*78
$GPGGA,053007.00,,,,,0,00,99.9,,M,,M,,*5E
$GPRMC,053007.00,V,,,,,,,080926,,,N*79
$GPGGA,053008.00,2218.4301,N,07310.8738,E,1,07,1.0,41.3,M,0.0,M,,*6C
$GPRMC,053008.00,A,2218.4301,N,07310.8738,E,2.99,46.9,080926,,,A*52
$GPGGA,053009.00,2218.4306,N,07310.8743,E,1,07,0.8,41.3,M,0.0,M,,*6F
$GPRMC,053009.00,A,2218.4306,N,07310.8743,E,2.54,43.1,080926,,,A*54
$GPGGA,053010.00,2218.4312,N,07310.8749,E,1,11,1.3,41.2,M,0.0,M,,*64
$GPRMC,053010.00,A,2218.4312,N,07310.8749,E,2.86,44.3,080926,,,A*59
$GPGGA,053011.00,2218.4318,N,07310.8755,E,1,09,0.8,41.3,M,0.0,M,,*60
$GPRMC,053011.00,A,2218.4318,N,07310.8755,E,3.12,40.4,080926,,,A*50
$GPGGA,053012.00,2218.4324,N,07310.8761,E,1,07,1.3,41.2,M,0.0,M,,*6E
$GPRMC,053012.00,A,2218.4324,N,07310.8761,E,2.66,44.0,080926,,,A*59
$GPGGA,053013.00,2218.4330,N,07310.8767,E,1,11,1.4,41.2,M,0.0,M,,*6C
$GPRMC,053013.00,A,2218.4330,N,07310.8767,E,3.12,44.9,080926,,,A*50
$GPGGA,053014.00,2218.4336,N,07310.8773,E,1,11,1.1,41.3,M,0.0,M,,*6C
$GPRMC,053014.00,A,2218.4336,N,07310.8773,E,2.87,43.9,080926,,,A*5E
$GPGGA,053015.00,2218.4340,N,07310.8778,E,1,09,1.3,41.3,M,0.0,M,,*6C
$GPRMC,053015.00,A,2218.4340,N,07310.8778,E,2.38,45.5,080926,,,A*5B
$GPGGA,053016.00,2218.4345,N,07310.8784,E,1,09,1.0,41.2,M,0.0,M,,*6B
$GPRMC,053016.00,A,2218.4345,N,07310.8784,E,2.70,48.5,080926,,,A*5F
$GPGGA,053017.00,2218.4350,N,07310.8790,E,1,12,1.1,41.4,M,0.0,M,,*66
$GPRMC,053017.00,A,2218.4350,N,07310.8790,E,2.59,46.1,080926,,,A*5E
$GPGGA,053018.00,2218.4356,N,07310.8796,E,1,10,1.4,41.3,M,0.0,M,,*69
$GPRMC,053018.00,A,2218.4356,N,07310.8796,E,3.04,43.5,080926,,,A*59
$GPGGA,053019.00,2218.4362,N,07310.8802,E,1,07,1.3,41.3,M,0.0,M,,*6C
$GPRMC,053019.00,A,2218.4362,N,07310.8802,E,2.87,44.6,080926,,,A*53
$GPGGA,053020.00,2218.4367,N,07310.8808,E,1,11,0.8,41.2,M,0.0,M,,*65
$GPRMC,053020.00,A,2218.4367,N,07310.8808,E,2.72,47.1,080926,,,A*58
$GPGGA,053021.00,2218.4373,N,07310.8815,E,1,08,0.8,41.2,M,0.0,M,,*65
$GPRMC,053021.00,A,2218.4373,N,07310.8815,E,3.19,47.1,080926,,,A*5C
$GPGGA,053022.00,2218.4378,N,07310.8822,E,1,10,1.0,41.3,M,0.0,M,,*68
$GPRMC,053022.00,A,2218.4378,N,07310.8822,E,2.86,49.0,080926,,,A*58
$GPGGA,053023.00,2218.4385,N,07310.8829,E,1,07,1.3,41.3,M,0.0,M,,*65
$GPRMC,053023.00,A,2218.4385,N,07310.8829,E,3.30,46.8,080926,,,A*5B
$GPGGA,053024.00,2218.4390,N,07310.8834,E,1,11,1.0,41.4,M,0.0,M,,*69
$GPRMC,053024.00,A,2218.4390,N,07310.8834,E,2.49,44.0,080926,,,A*51
$GPGGA,053025.00,2218.4395,N,07310.8840,E,1,11,1.2,41.3,M,0.0,M,,*6B
$GPRMC,053025.00,A,2218.4395,N,07310.8840,E,2.79,44.8,080926,,,A*5D
$GPGGA,053026.00,2218.4402,N,07310.8846,E,1,12,0.8,41.4,M,0.0,M,,*68
$GPRMC,053026.00,A,2218.4402,N,07310.8846,E,3.19,41.7,080926,,,A*5C
$GPGGA,053027.00,2218.4407,N,07310.8852,E,1,12,1.4,41.5,M,0.0,M,,*65
$GPRMC,053027.00,A,2218.4407,N,07310.8852,E,2.78,41.2,080926,,,A*5E
$GPGGA,053028.00,2218.4413,N,07310.8858,E,1,12,1.3,41.4,M,0.0,M,,*63
$GPRMC,053028.00,A,2218.4413,N,07310.8858,E,2.82,43.3,080926,,,A*58
$GPGGA,053029.00,2218.4418,N,07310.8863,E,1,08,1.4,41.4,M,0.0,M,,*6D
$GPRMC,053029.00,A,2218.4418,N,07310.8863,E,2.53,43.3,080926,,,A*56
$GPGGA,053030.00,2218.4424,N,07310.8870,E,1,10,0.8,41.4,M,0.0,M,,*6C
$GPRMC,053030.00,A,2218.4424,N,07310.8870,E,3.22,46.7,080926,,,A*55
$GPGGA,053031.00,2218.4431,N,07310.8877,E,1,08,0.9,41.5,M,0.0,M,,*67
$GPRMC,053031.00,A,2218.4431,N,07310.8877,E,3.29,45.6,080926,,,A*5E
$GPGGA,053032.00,2218.4435,N,07310.8882,E,1,07,1.2,41.5,M,0.0,M,,*6F
$GPRMC,053032.00,A,2218.4435,N,07310.8882,E,2.41,46.1,080926,,,A*58
$GPGGA,053033.00,2218.4441,N,07310.8888,E,1,09,1.3,41.6,M,0.0,M,,*6B
$GPRMC,053033.00,A,2218.4441,N,07310.8888,E,2.80,43.2,080926,,,A*5B
$GPGGA,053034.00,2218.4446,N,07310.8893,E,1,12,1.2,41.6,M,0.0,M,,*6A
$GPRMC,053034.00,A,2218.4446,N,07310.8893,E,2.54,42.6,080926,,,A*5D
$GPGGA,053035.00,2218.4452,N,07310.8899,E,1,11,0.8,41.5,M,0.0,M,,*6F
$GPRMC,053035.00,A,2218.4452,N,07310.8899,E,2.99,41.7,080926,,,A*50
$GPGGA,053036.00,2218.4458,N,07310.8904,E,1,08,0.9,41.6,M,0.0,M,,*69
$GPRMC,053036.00,A,2218.4458,N,07310.8904,E,2.66,39.5,080926,,,A*51
$GPGGA,053037.00,2218.4465,N,07310.8909,E,1,07,0.7,41.5,M,0.0,M,,*69
$GPRMC,053037.00,A,2218.4465,N,07310.8909,E,2.95,36.1,080926,,,A*54
$GPGGA,053038.00,2218.4472,N,07310.8914,E,1,08,1.1,41.4,M,0.0,M,,*65
$GPRMC,053038.00,A,2218.4472,N,07310.8914,E,2.98,34.0,080926,,,A*5F
$GPGGA,053039.00,2218.4478,N,07310.8919,E,1,07,1.2,41.4,M,0.0,M,,*6F
$GPRMC,053039.00,A,2218.4478,N,07310.8919,E,2.79,32.0,080926,,,A*50
$GPGGA,053040.00,2218.4485,N,07310.8923,E,1,07,0.7,41.5,M,0.0,M,,*6F
$GPRMC,053040.00,A,2218.4485,N,07310.8923,E,2.73,30.8,080926,,,A*55
$GPGGA,053041.00,2218.4492,N,07310.8928,E,1,08,1.1,41.4,M,0.0,M,,*6A
$GPRMC,053041.00,A,2218.4492,N,07310.8928,E,3.11,32.6,080926,,,A*50
$GPGGA,053042.00,2218.4498,N,07310.8932,E,1,07,1.3,41.3,M,0.0,M,,*62
$GPRMC,053042.00,A,2218.4498,N,07310.8932,E,2.51,29.7,080926,,,A*5C
$GPGGA,053043.00,2218.4504,N,07310.8936,E,1,11,1.4,41.4,M,0.0,M,,*64
$GPRMC,053043.00,A,2218.4504,N,07310.8936,E,2.43,32.6,080926,,,A*55
$GPGGA,053044.00,2218.4511,N,07310.8941,E,1,10,0.8,41.3,M,0.0,M,,*6C
$GPRMC,053044.00,A,2218.4511,N,07310.8941,E,3.16,36.0,080926,,,A*55
$GPGGA,053045.00,2218.4516,N,07310.8945,E,1,10,1.3,41.3,M,0.0,M,,*64
$GPRMC,053045.00,A,2218.4516,N,07310.8945,E,2.39,35.2,080926,,,A*5A
$GPGGA,053046.00,2218.4522,N,07310.8950,E,1,12,1.2,41.3,M,0.0,M,,*67
$GPRMC,053046.00,A,2218.4522,N,07310.8950,E,2.61,37.5,080926,,,A*52
$GPGGA,053047.00,2218.4527,N,07310.8955,E,1,07,1.2,41.2,M,0.0,M,,*63
$GPRMC,053047.00,A,2218.4527,N,07310.8955,E,2.52,37.4,080926,,,A*52
$GPGGA,053048.00,2218.4533,N,07310.8959,E,1,10,1.3,41.1,M,0.0,M,,*61
$GPRMC,053048.00,A,2218.4533,N,07310.8959,E,2.63,33.9,080926,,,A*5F
$GPGGA,053049.00,2218.4539,N,07310.8963,E,1,08,1.1,41.1,M,0.0,M,,*68
$GPRMC,053049.00,A,2218.4539,N,07310.8963,E,2.39,34.1,080926,,,A*5D
$GPGGA,053050.00,2218.4545,N,07310.8968,E,1,11,1.1,41.0,M,0.0,M,,*69
$GPRMC,053050.00,A,2218.4545,N,07310.8968,E,2.56,35.5,080926,,,A*59
$GPGGA,053051.00,2218.4550,N,07310.8971,E,1,11,0.9,41.0,M,0.0,M,,*6D
$GPRMC,053051.00,A,2218.4550,N,07310.8971,E,2.41,31.8,080926,,,A*5B
$GPGGA,053052.00,2218.4558,N,07310.8976,E,1,09,0.8,41.0,M,0.0,M,,*69
$GPRMC,053052.00,A,2218.4558,N,07310.8976,E,2.99,29.9,080926,,,A*5A
$GPGGA,053053.00,2218.4564,N,07310.8980,E,1,07,1.0,41.1,M,0.0,M,,*68
$GPRMC,053053.00,A,2218.4564,N,07310.8980,E,2.78,31.1,080926,,,A*53
$GPGGA,053054.00,2218.4572,N,07310.8986,E,1,08,0.9,41.0,M,0.0,M,,*68
$GPRMC,053054.00,A,2218.4572,N,07310.8986,E,3.30,35.1,080926,,,A*5C
$GPGGA,053055.00,2218.4579,N,07310.8992,E,1,09,0.8,41.1,M,0.0,M,,*66
$GPRMC,053055.00,A,2218.4579,N,07310.8992,E,3.19,38.5,080926,,,A*51
$GPGGA,053056.00,2218.4585,N,07310.8998,E,1,12,0.7,41.1,M,0.0,M,,*69
$GPRMC,053056.00,A,2218.4585,N,07310.8998,E,3.02,41.2,080926,,,A*58
$GPGGA,053057.00,2218.4590,N,07310.9003,E,1,08,0.8,41.2,M,0.0,M,,*61
$GPRMC,053057.00,A,2218.4590,N,07310.9003,E,2.62,43.8,080926,,,A*58
$GPGGA,053058.00,2218.4596,N,07310.9009,E,1,11,1.2,41.1,M,0.0,M,,*62
$GPRMC,053058.00,A,2218.4596,N,07310.9009,E,2.87,40.6,080926,,,A*5D
$GPGGA,053059.00,2218.4603,N,07310.9014,E,1,10,1.3,41.0,M,0.0,M,,*61
$GPRMC,053059.00,A,2218.4603,N,07310.9014,E,2.95,38.2,080926,,,A*57
$GPGGA,053100.00,2218.4608,N,07310.9019,E,1,09,0.7,41.0,M,0.0,M,,*67
$GPRMC,053100.00,A,2218.4608,N,07310.9019,E,2.42,41.0,080926,,,A*5A
$GPGGA,053101.00,2218.4614,N,07310.9025,E,1,12,1.1,40.9,M,0.0,M,,*61
$GPRMC,053101.00,A,2218.4614,N,07310.9025,E,2.95,43.2,080926,,,A*53
$GPGGA,053102.00,2218.4618,N,07310.9030,E,1,12,1.1,40.8,M,0.0,M,,*6B
$GPRMC,053102.00,A,2218.4618,N,07310.9030,E,2.34,42.6,080926,,,A*56
$GPGGA,053103.00,2218.4624,N,07310.9036,E,1,08,0.9,40.7,M,0.0,M,,*6E
$GPRMC,053103.00,A,2218.4624,N,07310.9036,E,2.90,45.3,080926,,,A*52
$GPGGA,053104.00,2218.4630,N,07310.9043,E,1,09,1.2,40.8,M,0.0,M,,*6A
$GPRMC,053104.00,A,2218.4630,N,07310.9043,E,3.10,48.5,080926,,,A*50
$GPGGA,053105.00,2218.4635,N,07310.9049,E,1,10,1.2,40.8,M,0.0,M,,*6C
$GPRMC,053105.00,A,2218.4635,N,07310.9049,E,2.68,49.8,080926,,,A*5C
$GPGGA,053106.00,2218.4639,N,07310.9055,E,1,08,0.7,40.7,M,0.0,M,,*6C
$GPRMC,053106.00,A,2218.4639,N,07310.9055,E,2.56,53.2,080926,,,A*52
$GPGGA,053107.00,2218.4643,N,07310.9062,E,1,12,0.9,40.9,M,0.0,M,,*6F
$GPRMC,053107.00,A,2218.4643,N,07310.9062,E,2.66,55.1,080926,,,A*5C
$GPGGA,053108.00,2218.4647,N,07310.9068,E,1,10,0.8,41.0,M,0.0,M,,*65
$GPRMC,053108.00,A,2218.4647,N,07310.9068,E,2.44,57.4,080926,,,A*5A
$GPGGA,053109.00,2218.4650,N,07310.9075,E,1,08,0.7,41.1,M,0.0,M,,*69
$GPRMC,053109.00,A,2218.4650,N,07310.9075,E,2.67,60.7,080926,,,A*57
$GPGGA,053110.00,2218.4654,N,07310.9082,E,1,09,1.1,41.2,M,0.0,M,,*68
$GPRMC,053110.00,A,2218.4654,N,07310.9082,E,2.65,58.3,080926,,,A*5E
$GPGGA,053111.00,2218.4659,N,07310.9090,E,1,07,1.3,41.2,M,0.0,M,,*6B
$GPRMC,053111.00,A,2218.4659,N,07310.9090,E,3.29,57.5,080926,,,A*51
$GPGGA,053112.00,2218.4664,N,07310.9097,E,1,07,1.1,41.3,M,0.0,M,,*62
$GPRMC,053112.00,A,2218.4664,N,07310.9097,E,2.90,55.6,080926,,,A*59
$GPGGA,053113.00,2218.4669,N,07310.9105,E,1,11,1.0,41.3,M,0.0,M,,*62
$GPRMC,053113.00,A,2218.4669,N,07310.9105,E,3.10,54.3,080926,,,A*52
$GPGGA,053114.00,2218.4673,N,07310.9111,E,1,07,1.3,41.4,M,0.0,M,,*68
$GPRMC,053114.00,A,2218.4673,N,07310.9111,E,2.58,55.0,080926,,,A*54
$GPGGA,053115.00,2218.4678,N,07310.9118,E,1,12,1.0,41.4,M,0.0,M,,*6C
$GPRMC,053115.00,A,2218.4678,N,07310.9118,E,3.03,55.3,080926,,,A*5B
$GPGGA,053116.00,2218.4683,N,07310.9125,E,1,09,1.2,41.4,M,0.0,M,,*6D
$GPRMC,053116.00,A,2218.4683,N,07310.9125,E,2.98,51.8,080926,,,A*5E
$GPGGA,053117.00,2218.4687,N,07310.9132,E,1,10,1.1,41.4,M,0.0,M,,*65
$GPRMC,053117.00,A,2218.4687,N,07310.9132,E,2.63,50.2,080926,,,A*52
$GPGGA,053118.00,2218.4693,N,07310.9138,E,1,12,1.1,41.3,M,0.0,M,,*60
$GPRMC,053118.00,A,2218.4693,N,07310.9138,E,2.98,47.8,080926,,,A*5A
$GPGGA,053119.00,2218.4698,N,07310.9144,E,1,09,1.0,41.2,M,0.0,M,,*6B
$GPRMC,053119.00,A,2218.4698,N,07310.9144,E,2.87,46.2,080926,,,A*5E
$GPGGA,053120.00,2218.4704,N,07310.9151,E,1,10,1.1,41.2,M,0.0,M,,*68
$GPRMC,053120.00,A,2218.4704,N,07310.9151,E,2.97,46.8,080926,,,A*5F
$GPGGA,053121.00,2218.4710,N,07310.9158,E,1,12,0.9,41.2,M,0.0,M,,*6E
$GPRMC,053121.00,A,2218.4710,N,07310.9158,E,3.27,49.2,080926,,,A*5D
$GPGGA,053122.00,2218.4715,N,07310.9165,E,1,08,0.9,41.1,M,0.0,M,,*6E
$GPRMC,053122.00,A,2218.4715,N,07310.9165,E,2.93,50.5,080926,,,A*54
$GPGGA,053123.00,2218.4719,N,07310.9170,E,1,10,1.3,41.0,M,0.0,M,,*64
$GPRMC,053123.00,A,2218.4719,N,07310.9170,E,2.35,48.1,080926,,,A*5C
$GPGGA,053124.00,2218.4725,N,07310.9176,E,1,08,1.0,41.1,M,0.0,M,,*61
$GPRMC,053124.00,A,2218.4725,N,07310.9176,E,2.74,44.6,080926,,,A*5C
$GPGGA,053125.00,2218.4731,N,07310.9182,E,1,07,0.9,40.9,M,0.0,M,,*60
$GPRMC,053125.00,A,2218.4731,N,07310.9182,E,2.97,42.6,080926,,,A*58
$GPGGA,053126.00,2218.4737,N,07310.9188,E,1,11,1.3,40.9,M,0.0,M,,*63
$GPRMC,053126.00,A,2218.4737,N,07310.9188,E,3.01,45.0,080926,,,A*58
$GPGGA,053127.00,2218.4742,N,07310.9193,E,1,11,1.1,40.9,M,0.0,M,,*68
$GPRMC,053127.00,A,2218.4742,N,07310.9193,E,2.46,42.0,080926,,,A*54
$GPGGA,053128.00,2218.4748,N,07310.9200,E,1,12,1.0,40.9,M,0.0,M,,*66
$GPRMC,053128.00,A,2218.4748,N,07310.9200,E,3.20,45.6,080926,,,A*58
$GPGGA,053129.00,2218.4753,N,07310.9206,E,1,10,0.9,40.8,M,0.0,M,,*60
$GPRMC,053129.00,A,2218.4753,N,07310.9206,E,2.76,48.9,080926,,,A*55
$GPGGA,053130.00,2218.4759,N,07310.9213,E,1,11,1.1,40.9,M,0.0,M,,*6F
$GPRMC,053130.00,A,2218.4759,N,07310.9213,E,2.95,46.8,080926,,,A*51
$GPGGA,053131.00,2218.4763,N,07310.9218,E,1,09,0.9,40.9,M,0.0,M,,*6C
$GPRMC,053131.00,A,2218.4763,N,07310.9218,E,2.41,45.0,080926,,,A*50
$GPGGA,053132.00,2218.4768,N,07310.9223,E,1,12,1.2,40.8,M,0.0,M,,*6D
$GPRMC,053132.00,A,2218.4768,N,07310.9223,E,2.47,45.3,080926,,,A*55
$GPGGA,053133.00,2218.4774,N,07310.9229,E,1,10,0.8,40.8,M,0.0,M,,*62
$GPRMC,053133.00,A,2218.4774,N,07310.9229,E,2.73,41.9,080926,,,A*5A
$GPGGA,053134.00,2218.4781,N,07310.9235,E,1,12,1.3,40.8,M,0.0,M,,*6A
$GPRMC,053134.00,A,2218.4781,N,07310.9235,E,3.21,41.2,080926,,,A*57
$GPGGA,053135.00,2218.4786,N,07310.9241,E,1,09,1.2,40.7,M,0.0,M,,*6B
$GPRMC,053135.00,A,2218.4786,N,07310.9241,E,2.70,43.3,080926,,,A*54
$GPGGA,053136.00,2218.4792,N,07310.9248,E,1,12,1.3,40.6,M,0.0,M,,*6E
$GPRMC,053136.00,A,2218.4792,N,07310.9248,E,3.26,46.2,080926,,,A*5D
$GPGGA,053137.00,2218.4797,N,07310.9254,E,1,10,1.0,40.6,M,0.0,M,,*66
$GPRMC,053137.00,A,2218.4797,N,07310.9254,E,2.81,49.4,080926,,,A*51
$GPGGA,053138.00,2218.4803,N,07310.9261,E,1,10,1.4,40.6,M,0.0,M,,*69
$GPRMC,053138.00,A,2218.4803,N,07310.9261,E,3.11,50.7,080926,,,A*59
$GPGGA,053139.00,2218.4808,N,07310.9269,E,1,12,0.8,40.7,M,0.0,M,,*65
$GPRMC,053139.00,A,2218.4808,N,07310.9269,E,3.21,51.0,080926,,,A*5E
